NORAD_CAT_ID,OBJECT_NAME,OBJECT_TYPE,EPOCH,MEAN_MOTION,ECCENTRICITY,INCLINATION,RA_OF_ASC_NODE,ARG_OF_PERICENTER,MEAN_ANOMALY,BSTAR,MEAN_MOTION_DOT,MEAN_MOTION_DDOT,TLE_LINE0,TLE_LINE1,TLE_LINE2,SEMIMAJOR_AXIS,PERIOD,APOGEE,PERIGEE,DECAYED
53565.0,STARLINK-4575,PAYLOAD,2023-06-16 12:23:01,15.08850388,8.85e-05,53.215,210.7619,83.1735,276.9357,0.00013412,1.848e-05,0.0,0 STARLINK-4575,1 53565U 22101AQ  23167.51599339  .00001848  00000-0  13412-3 0  9998,2 53565  53.2150 210.7619 0000885  83.1735 276.9357 15.08850388 46562,6917.849,95.437,540.326,539.101,0.0
53565.0,STARLINK-4575,PAYLOAD,2023-06-16 20:19:58,15.08838008,0.000101,53.2147,209.2754,84.7656,275.3451,2.5382e-05,1.16e-06,0.0,0 STARLINK-4575,1 53565U 22101AQ  23167.84720411  .00000116  00000-0  25382-4 0  9998,2 53565  53.2147 209.2754 0001010  84.7656 275.3451 15.08838008 46610,6917.886,95.438,540.45,539.053,0.0
53565.0,STARLINK-4575,PAYLOAD,2023-06-17 09:03:04,15.0883266,0.0001051,53.2149,206.8965,90.3805,269.7308,-2.8099e-06,-3.32e-06,0.0,0 STARLINK-4575,1 53565U 22101AQ  23168.37713030 -.00000332  00000-0 -28099-5 0  9997,2 53565  53.2149 206.8965 0001051  90.3805 269.7308 15.08832660 46035,6917.903,95.438,540.495,539.041,0.0
53565.0,STARLINK-4575,PAYLOAD,2023-06-17 12:13:50,15.08833022,9.09e-05,53.2157,206.3018,92.7831,267.3265,-3.6063e-05,-8.61e-06,0.0,0 STARLINK-4575,1 53565U 22101AQ  23168.50961128 -.00000861  00000-0 -36063-4 0  9991,2 53565  53.2157 206.3018 0000909  92.7831 267.3265 15.08833022 46718,6917.902,95.438,540.396,539.138,0.0
53565.0,STARLINK-4575,PAYLOAD,2023-06-17 20:10:46,15.08834699,8.82e-05,53.2157,204.8147,95.2731,264.8362,-1.2846e-05,-4.92e-06,0.0,0 STARLINK-4575,1 53565U 22101AQ  23168.84081050 -.00000492  00000-0 -12846-4 0  9998,2 53565  53.2157 204.8147 0000882  95.2731 264.8362 15.08834699 46767,6917.897,95.438,540.372,539.151,0.0
53565.0,STARLINK-4575,PAYLOAD,2023-06-18 02:32:18,15.08839933,8.57e-05,53.2157,203.625,93.4567,266.6524,2.0249e-05,3.5e-07,0.0,0 STARLINK-4575,1 53565U 22101AQ  23169.10576666  .00000035  00000-0  20249-4 0  9997,2 53565  53.2157 203.6250 0000857  93.4567 266.6524 15.08839933 46146,6917.881,95.438,540.338,539.153,0.0
53565.0,STARLINK-4575,PAYLOAD,2023-06-18 12:04:36,15.08843929,8.68e-05,53.2156,201.8413,90.5953,269.5139,-9.0676e-06,-4.32e-06,0.0,0 STARLINK-4575,1 53565U 22101AQ  23169.50320547 -.00000432  00000-0 -90676-5 0  9991,2 53565  53.2156 201.8413 0000868  90.5953 269.5139 15.08843929 46868,6917.868,95.437,540.334,539.133,0.0
53565.0,STARLINK-4575,PAYLOAD,2023-06-19 08:44:37,15.08838473,8.01e-05,53.2153,197.9754,92.1872,267.9212,0.00018069,2.589e-05,0.0,0 STARLINK-4575,1 53565U 22101AQ  23170.36432471  .00002589  00000-0  18069-3 0  9994,2 53565  53.2153 197.9754 0000801  92.1872 267.9212 15.08838473 46337,6917.885,95.438,540.304,539.196,0.0
53565.0,STARLINK-4575,PAYLOAD,2023-06-19 13:30:46,15.0884207,7.99e-05,53.2153,197.0831,90.9875,269.1209,0.0001801,2.58e-05,0.0,0 STARLINK-4575,1 53565U 22101AQ  23170.56304296  .00002580  00000-0  18010-3 0  9996,2 53565  53.2153 197.0831 0000799  90.9875 269.1209 15.08842070 47024,6917.874,95.437,540.292,539.186,0.0
53565.0,STARLINK-4575,PAYLOAD,2023-06-20 02:13:52,15.08836395,7.24e-05,53.2157,194.7041,95.0296,265.0778,5.1608e-05,5.34e-06,0.0,0 STARLINK-4575,1 53565U 22101AQ  23171.09297082  .00000534  00000-0  51608-4 0  9997,2 53565  53.2157 194.7041 0000724  95.0296 265.0778 15.08836395 46440,6917.891,95.438,540.257,539.256,0.0
53565.0,STARLINK-4575,PAYLOAD,2023-06-20 13:21:34,15.0883978,8.5e-05,53.2156,192.6233,88.7099,271.399,6.8594e-05,8.04e-06,0.0,0 STARLINK-4575,1 53565U 22101AQ  23171.55664857  .00000804  00000-0  68594-4 0  9998,2 53565  53.2156 192.6233 0000850  88.7099 271.3990 15.08839780 47177,6917.881,95.438,540.334,539.158,0.0
53565.0,STARLINK-4575,PAYLOAD,2023-06-21 06:50:49,15.08841632,8.34e-05,53.2152,189.3507,90.3382,269.7705,-2.2215e-06,-3.23e-06,0.0,0 STARLINK-4575,1 53565U 22101AQ  23172.28528948 -.00000323  00000-0 -22215-5 0  9998,2 53565  53.2152 189.3507 0000834  90.3382 269.7705 15.08841632 46629,6917.875,95.437,540.317,539.163,0.0
53565.0,STARLINK-4575,PAYLOAD,2023-06-21 17:58:30,15.08842434,8.77e-05,53.2156,187.2692,85.223,274.8863,-7.8206e-08,-2.89e-06,0.0,0 STARLINK-4575,1 53565U 22101AQ  23172.74896860 -.00000289  00000-0 -78206-7 0  9994,2 53565  53.2156 187.2692 0000877  85.2230 274.8863 15.08842434 47351,6917.873,95.437,540.345,539.131,0.0
53565.0,STARLINK-4575,PAYLOAD,2023-06-22 09:52:22,15.0884078,8.93e-05,53.2155,184.2958,87.3109,272.7985,7.3211e-05,8.78e-06,0.0,0 STARLINK-4575,1 53565U 22101AQ  23173.41136873  .00000878  00000-0  73211-4 0  9990,2 53565  53.2155 184.2958 0000893  87.3109 272.7985 15.08840780 46799,6917.878,95.438,540.361,539.125,0.0
53565.0,STARLINK-4575,PAYLOAD,2023-06-23 17:40:05,15.08840201,8.84e-05,53.2155,178.3481,89.1343,270.9751,7.4374e-05,8.96e-06,0.0,0 STARLINK-4575,1 53565U 22101AQ  23174.73616990  .00000896  00000-0  74374-4 0  9990,2 53565  53.2155 178.3481 0000884  89.1343 270.9751 15.08840201 46995,6917.88,95.438,540.356,539.133,0.0
53565.0,STARLINK-4575,PAYLOAD,2023-06-25 03:03:10,15.08842743,8.72e-05,53.2151,172.1036,87.9567,272.1525,7.0484e-05,8.34e-06,0.0,0 STARLINK-4575,1 53565U 22101AQ  23176.12720798  .00000834  00000-0  70484-4 0  9997,2 53565  53.2151 172.1036 0000872  87.9567 272.1525 15.08842743 47201,6917.872,95.437,540.34,539.134,0.0
53565.0,STARLINK-4575,PAYLOAD,2023-06-26 02:53:58,15.08838294,9.17e-05,53.2148,167.6435,86.414,273.6957,4.4618e-05,4.22e-06,0.0,0 STARLINK-4575,1 53565U 22101AQ  23177.12081108  .00000422  00000-0  44618-4 0  9996,2 53565  53.2148 167.6435 0000917  86.4140 273.6957 15.08838294 47357,6917.886,95.438,540.385,539.116,0.0
53565.0,STARLINK-4575,PAYLOAD,2023-06-27 04:20:08,15.08837139,9.62e-05,53.2154,162.8858,86.5177,273.5925,3.2196e-06,-2.36e-06,0.0,0 STARLINK-4575,1 53565U 22101AQ  23178.18065375 -.00000236  00000-0  32196-5 0  9994,2 53565  53.2154 162.8858 0000962  86.5177 273.5925 15.08837139 47510,6917.889,95.438,540.42,539.089,0.0
53565.0,STARLINK-4575,PAYLOAD,2023-06-28 05:46:18,15.08836904,9.49e-05,53.2156,158.128,89.0862,271.0239,4.7676e-05,4.71e-06,0.0,0 STARLINK-4575,1 53565U 22101AQ  23179.24049440  .00000471  00000-0  47676-4 0  9995,2 53565  53.2156 158.1280 0000949  89.0862 271.0239 15.08836904 47670,6917.89,95.438,540.411,539.098,0.0
53565.0,STARLINK-4575,PAYLOAD,2023-06-29 08:47:52,15.08839396,0.0001005,53.2156,153.0725,87.8138,272.2969,8.1226e-05,1.005e-05,0.0,0 STARLINK-4575,1 53565U 22101AQ  23180.36657491  .00001005  00000-0  81226-4 0  9994,2 53565  53.2156 153.0725 0001005  87.8138 272.2969 15.08839396 47844,6917.882,95.438,540.442,539.052,0.0
53565.0,STARLINK-4575,PAYLOAD,2023-06-30 15:00:12,15.08826256,8.39e-05,53.2161,147.4236,92.2119,267.897,-5.6735e-05,-1.19e-05,0.0,0 STARLINK-4575,1 53565U 22101AQ  23181.62514779 -.00001190  00000-0 -56735-4 0  9999,2 53565  53.2161 147.4236 0000839  92.2119 267.8970 15.08826256 48032,6917.922,95.438,540.368,539.207,0.0
53565.0,STARLINK-4575,PAYLOAD,2023-07-01 06:54:03,15.08833848,0.0001081,53.216,144.4496,88.2945,271.8171,-3.7236e-06,-3.47e-06,0.0,0 STARLINK-4575,1 53565U 22101AQ  23182.28754627 -.00000347  00000-0 -37236-5 0  9999,2 53565  53.2160 144.4496 0001081  88.2945 271.8171 15.08833848 48132,6917.899,95.438,540.512,539.016,0.0
53565.0,STARLINK-4575,PAYLOAD,2023-07-02 01:58:41,15.08842514,0.0001093,53.2163,140.8805,85.9899,274.1218,8.187e-05,1.015e-05,0.0,0 STARLINK-4575,1 53565U 22101AQ  23183.08242009  .00001015  00000-0  81870-4 0  9997,2 53565  53.2163 140.8805 0001093  85.9899 274.1218 15.08842514 48255,6917.873,95.437,540.494,538.982,0.0
53565.0,STARLINK-4575,PAYLOAD,2023-07-03 01:49:28,15.08838945,0.0001132,53.2159,136.4213,81.8698,278.2423,0.00016263,2.301e-05,0.0,0 STARLINK-4575,1 53565U 22101AQ  23184.07602281  .00002301  00000-0  16263-3 0  9991,2 53565  53.2159 136.4213 0001132  81.8698 278.2423 15.08838945 48403,6917.884,95.438,540.532,538.966,0.0
53565.0,STARLINK-4575,PAYLOAD,2023-07-04 03:15:38,15.08840113,0.0001221,53.2158,131.6622,90.7914,269.3218,1.5943e-05,-3.4e-07,0.0,0 STARLINK-4575,1 53565U 22101AQ  23185.13586416 -.00000034  00000-0  15943-4 0  9997,2 53565  53.2158 131.6622 0001221  90.7914 269.3218 15.08840113 48562,6917.88,95.438,540.59,538.9,0.0
53565.0,STARLINK-4575,PAYLOAD,2023-07-05 12:38:44,15.08842006,0.0001218,53.2161,125.417,84.3954,275.7177,-1.5073e-05,-5.28e-06,0.0,0 STARLINK-4575,1 53565U 22101AQ  23186.52690308 -.00000528  00000-0 -15073-4 0  9990,2 53565  53.2161 125.4170 0001218  84.3954 275.7177 15.08842006 48775,6917.874,95.437,540.582,538.897,0.0
53565.0,STARLINK-4575,PAYLOAD,2023-07-06 02:57:13,15.0883464,0.0001227,53.2158,122.7417,82.4862,277.627,4.5718e-05,4.4e-06,0.0,0 STARLINK-4575,1 53565U 22101AQ  23187.12306896  .00000440  00000-0  45718-4 0  9993,2 53565  53.2158 122.7417 0001227  82.4862 277.6270 15.08834640 48862,6917.897,95.438,540.611,538.913,0.0
53565.0,STARLINK-4575,PAYLOAD,2023-07-07 04:23:22,15.08849212,0.0001156,53.2157,117.9842,94.1529,265.9595,0.00012524,1.706e-05,0.0,0 STARLINK-4575,1 53565U 22101AQ  23188.18289843  .00001706  00000-0  12524-3 0  9996,2 53565  53.2157 117.9842 0001156  94.1529 265.9595 15.08849212 49020,6917.852,95.437,540.517,538.918,0.0
53565.0,STARLINK-4575,PAYLOAD,2023-07-07 12:20:18,15.08845128,0.0001072,53.2162,116.4968,101.0103,259.1009,2.0513e-05,3.9e-07,0.0,0 STARLINK-4575,1 53565U 22101AQ  23188.51410231  .00000039  00000-0  20513-4 0  9996,2 53565  53.2162 116.4968 0001072 101.0103 259.1009 15.08845128 49074,6917.865,95.437,540.471,538.988,0.0
53565.0,STARLINK-4575,PAYLOAD,2023-07-08 04:14:10,15.08840443,0.0001113,53.2165,113.5227,81.3129,278.7989,8.3974e-05,1.049e-05,0.0,0 STARLINK-4575,1 53565U 22101AQ  23189.17650665  .00001049  00000-0  83974-4 0  9998,2 53565  53.2165 113.5227 0001113  81.3129 278.7989 15.08840443 49177,6917.879,95.438,540.514,538.974,0.0
